{
  "type": "FeatureCollection",
  "features": [
    {
      "type": "Feature",
      "properties": {
        "norad_id": 29922,
        "name": "FENGYUN 1C DEB",
        "group": "fengyun-1c-debris",
        "lat": -31.21722921161303,
        "lon": -148.2584344781277,
        "alt_km": 972.5757220137339,
        "timestamp": "2025-12-05T20:43:02.327635+00:00",
        "meta_object_name": "FENGYUN 1C DEB",
        "meta_object_id": "1999-025HU",
        "meta_epoch": "2025-12-05T02:32:27.873888",
        "meta_mean_motion": 13.98575542,
        "meta_eccentricity": 0.00937523,
        "meta_inclination": 99.1369,
        "meta_ra_of_asc_node": 36.5842,
        "meta_arg_of_pericenter": 28.0824,
        "meta_mean_anomaly": 332.5352,
        "meta_ephemeris_type": 0,
        "meta_classification_type": "U",
        "meta_norad_cat_id": 29922,
        "meta_element_set_no": 999,
        "meta_rev_at_epoch": 96334,
        "meta_bstar": 0.00038456992,
        "meta_mean_motion_dot": 5.28e-06,
        "meta_mean_motion_ddot": 0,
        "tle_line1": "1 29922U 99025HU  25339.10587817  .00000528  00000+0  38457-3 0  9992",
        "tle_line2": "2 29922  99.1369  36.5842 0093752  28.0824 332.5352 13.98575542963348"
      },
      "geometry": {
        "type": "Point",
        "coordinates": [
          -148.2584344781277,
          -31.21722921161303
        ]
      }
    },
    {
      "type": "Feature",
      "properties": {
        "norad_id": 29923,
        "name": "FENGYUN 1C DEB",
        "group": "fengyun-1c-debris",
        "lat": 34.18169071181485,
        "lon": -17.612123877270797,
        "alt_km": 855.1471849036234,
        "timestamp": "2025-12-05T20:43:02.327645+00:00",
        "meta_object_name": "FENGYUN 1C DEB",
        "meta_object_id": "1999-025HV",
        "meta_epoch": "2025-12-05T07:03:36.111744",
        "meta_mean_motion": 14.13872395,
        "meta_eccentricity": 0.00173252,
        "meta_inclination": 98.6884,
        "meta_ra_of_asc_node": 347.7956,
        "meta_arg_of_pericenter": 190.4666,
        "meta_mean_anomaly": 189.5201,
        "meta_ephemeris_type": 0,
        "meta_classification_type": "U",
        "meta_norad_cat_id": 29923,
        "meta_element_set_no": 999,
        "meta_rev_at_epoch": 97170,
        "meta_bstar": 0.00075861329,
        "meta_mean_motion_dot": 1.397e-05,
        "meta_mean_motion_ddot": 0,
        "tle_line1": "1 29923U 99025HV  25339.29416796  .00001397  00000+0  75861-3 0  9995",
        "tle_line2": "2 29923  98.6884 347.7956 0017325 190.4666 189.5201 14.13872395971704"
      },
      "geometry": {
        "type": "Point",
        "coordinates": [
          -17.612123877270797,
          34.18169071181485
        ]
      }
    },
    {
      "type": "Feature",
      "properties": {
        "norad_id": 29924,
        "name": "FENGYUN 1C DEB",
        "group": "fengyun-1c-debris",
        "lat": 46.8828328760114,
        "lon": -177.51563522614416,
        "alt_km": 874.4747408885569,
        "timestamp": "2025-12-05T20:43:02.327655+00:00",
        "meta_object_name": "FENGYUN 1C DEB",
        "meta_object_id": "1999-025HW",
        "meta_epoch": "2025-12-05T06:31:29.143776",
        "meta_mean_motion": 14.08886562,
        "meta_eccentricity": 0.00258933,
        "meta_inclination": 98.7348,
        "meta_ra_of_asc_node": 352.4611,
        "meta_arg_of_pericenter": 279.662,
        "meta_mean_anomaly": 95.1427,
        "meta_ephemeris_type": 0,
        "meta_classification_type": "U",
        "meta_norad_cat_id": 29924,
        "meta_element_set_no": 999,
        "meta_rev_at_epoch": 97103,
        "meta_bstar": 0.00016314022,
        "meta_mean_motion_dot": 2.4e-06,
        "meta_mean_motion_ddot": 0,
        "tle_line1": "1 29924U 99025HW  25339.27186509  .00000240  00000+0  16314-3 0  9994",
        "tle_line2": "2 29924  98.7348 352.4611 0025893 279.6620  95.1427 14.08886562971034"
      },
      "geometry": {
        "type": "Point",
        "coordinates": [
          -177.51563522614416,
          46.8828328760114
        ]
      }
    },
    {
      "type": "Feature",
      "properties": {
        "norad_id": 29926,
        "name": "FENGYUN 1C DEB",
        "group": "fengyun-1c-debris",
        "lat": 62.2429803328267,
        "lon": 165.12010779801767,
        "alt_km": 935.9713648146653,
        "timestamp": "2025-12-05T20:43:02.327665+00:00",
        "meta_object_name": "FENGYUN 1C DEB",
        "meta_object_id": "1999-025HY",
        "meta_epoch": "2025-12-04T22:38:18.306816",
        "meta_mean_motion": 14.33353283,
        "meta_eccentricity": 0.0248724,
        "meta_inclination": 98.2825,
        "meta_ra_of_asc_node": 328.1705,
        "meta_arg_of_pericenter": 323.586,
        "meta_mean_anomaly": 87.4651,
        "meta_ephemeris_type": 0,
        "meta_classification_type": "U",
        "meta_norad_cat_id": 29926,
        "meta_element_set_no": 999,
        "meta_rev_at_epoch": 98469,
        "meta_bstar": 0.00084292,
        "meta_mean_motion_dot": 3.232e-05,
        "meta_mean_motion_ddot": 0,
        "tle_line1": "1 29926U 99025HY  25338.94326744  .00003232  00000+0  84292-3 0  9990",
        "tle_line2": "2 29926  98.2825 328.1705 0248724 323.5860  87.4651 14.33353283984696"
      },
      "geometry": {
        "type": "Point",
        "coordinates": [
          165.12010779801767,
          62.2429803328267
        ]
      }
    },
    {
      "type": "Feature",
      "properties": {
        "norad_id": 29927,
        "name": "FENGYUN 1C DEB",
        "group": "fengyun-1c-debris",
        "lat": -48.897245426324105,
        "lon": 13.555196408992026,
        "alt_km": 652.0636364847896,
        "timestamp": "2025-12-05T20:43:02.327676+00:00",
        "meta_object_name": "FENGYUN 1C DEB",
        "meta_object_id": "1999-025HZ",
        "meta_epoch": "2025-12-05T07:59:36.403008",
        "meta_mean_motion": 14.74128277,
        "meta_eccentricity": 0.00176296,
        "meta_inclination": 99.0845,
        "meta_ra_of_asc_node": 2.3939,
        "meta_arg_of_pericenter": 233.8709,
        "meta_mean_anomaly": 144.3954,
        "meta_ephemeris_type": 0,
        "meta_classification_type": "U",
        "meta_norad_cat_id": 29927,
        "meta_element_set_no": 999,
        "meta_rev_at_epoch": 98538,
        "meta_bstar": 0.0053984015,
        "meta_mean_motion_dot": 0.00035797,
        "meta_mean_motion_ddot": 0,
        "tle_line1": "1 29927U 99025HZ  25339.33306022  .00035797  00000+0  53984-2 0  9996",
        "tle_line2": "2 29927  99.0845   2.3939 0017629 233.8709 144.3954 14.74128277985385"
      },
      "geometry": {
        "type": "Point",
        "coordinates": [
          13.555196408992026,
          -48.897245426324105
        ]
      }
    },
    {
      "type": "Feature",
      "properties": {
        "norad_id": 29928,
        "name": "FENGYUN 1C DEB",
        "group": "fengyun-1c-debris",
        "lat": 31.625540781396424,
        "lon": -2.0264575000708938,
        "alt_km": 930.3048381233712,
        "timestamp": "2025-12-05T20:43:02.327686+00:00",
        "meta_object_name": "FENGYUN 1C DEB",
        "meta_object_id": "1999-025JA",
        "meta_epoch": "2025-12-04T14:02:18.573216",
        "meta_mean_motion": 13.88065676,
        "meta_eccentricity": 0.0143559,
        "meta_inclination": 99.5851,
        "meta_ra_of_asc_node": 2.6341,
        "meta_arg_of_pericenter": 124.696,
        "meta_mean_anomaly": 4.9267,
        "meta_ephemeris_type": 0,
        "meta_classification_type": "U",
        "meta_norad_cat_id": 29928,
        "meta_element_set_no": 999,
        "meta_rev_at_epoch": 95378,
        "meta_bstar": 0.0010022,
        "meta_mean_motion_dot": 1.251e-05,
        "meta_mean_motion_ddot": 0,
        "tle_line1": "1 29928U 99025JA  25338.58493719  .00001251  00000+0  10022-2 0  9997",
        "tle_line2": "2 29928  99.5851   2.6341 0143559 124.6960   4.9267 13.88065676953780"
      },
      "geometry": {
        "type": "Point",
        "coordinates": [
          -2.0264575000708938,
          31.625540781396424
        ]
      }
    },
    {
      "type": "Feature",
      "properties": {
        "norad_id": 29929,
        "name": "FENGYUN 1C DEB",
        "group": "fengyun-1c-debris",
        "lat": -67.25353190657057,
        "lon": -79.29682381922854,
        "alt_km": 904.3100137968977,
        "timestamp": "2025-12-05T20:43:02.327695+00:00",
        "meta_object_name": "FENGYUN 1C DEB",
        "meta_object_id": "1999-025JB",
        "meta_epoch": "2025-12-05T06:21:31.608288",
        "meta_mean_motion": 14.01326153,
        "meta_eccentricity": 0.01308444,
        "meta_inclination": 98.6241,
        "meta_ra_of_asc_node": 258.9164,
        "meta_arg_of_pericenter": 197.3392,
        "meta_mean_anomaly": 315.8634,
        "meta_ephemeris_type": 0,
        "meta_classification_type": "U",
        "meta_norad_cat_id": 29929,
        "meta_element_set_no": 999,
        "meta_rev_at_epoch": 95851,
        "meta_bstar": 0.0018380555,
        "meta_mean_motion_dot": 2.943e-05,
        "meta_mean_motion_ddot": 0,
        "tle_line1": "1 29929U 99025JB  25339.26494917  .00002943  00000+0  18381-2 0  9990",
        "tle_line2": "2 29929  98.6241 258.9164 0130844 197.3392 315.8634 14.01326153958516"
      },
      "geometry": {
        "type": "Point",
        "coordinates": [
          -79.29682381922854,
          -67.25353190657057
        ]
      }
    }
  ]
}